SCD 1                   
1 22490U 93009B   26182.18118684  .00000441  00000+0  69495-4 0  9999
2 22490  24.9687 121.1689 0041633 286.1724 173.7380 14.46124254763143
TECHSAT 1B (GO-32)      
1 25397U 98043D   26181.97249182  .00000062  00000+0  46975-4 0  9992
2 25397  99.0073 175.0791 0001716 137.9285 222.2024 14.24431061453299
SCD 2                   
1 25504U 98060A   26182.19997321  .00000400  00000+0  60738-4 0  9990
2 25504  24.9967 345.7440 0016535 271.3598 251.4236 14.45531076462356
DLR-TUBSAT              
1 25757U 99029B   26182.20924436  .00000118  00000+0  40824-4 0  9995
2 25757  98.6701 178.1749 0013282 310.8616  49.1426 14.52430475435280
TERRA                   
1 25994U 99068A   26182.18856784  .00000469  00000+0  10436-3 0  9992
2 25994  97.9449 231.1793 0002647 151.6481 244.4540 14.61114460411652
MAROC-TUBSAT            
1 27004U 01056D   26182.10458890 -.00000033  00000+0  15537-4 0  9990
2 27004  99.8088 359.2268 0020603 106.7634   5.4410 13.70263022228091
AQUA                    
1 27424U 02022A   26182.15139328  .00000795  00000+0  16768-3 0  9997
2 27424  98.4284 151.7138 0000697  76.6822 345.6832 14.62179055285315
SHIYAN-1 (SY-1)         
1 28220U 04012A   26182.14365446  .00017793  00000+0  54073-3 0  9991
2 28220  97.8690 261.1216 0004402 340.2025  19.9045 15.34117114213237
AURA                    
1 28376U 04026A   26182.15958317  .00000849  00000+0  18147-3 0  9990
2 28376  98.3423 138.7291 0001173  85.5842 274.5493 14.61350235168258
IRS-P5 (CARTOSAT-1)     
1 28649U 05017A   26182.03671480  .00001506  00000+0  15736-3 0  9996
2 28649  97.5305 204.4730 0002143  63.8343 296.3096 14.91086532145887
SINAH 1                 
1 28893U 05043D   26182.13201108  .00000371  00000+0  79893-4 0  9997
2 28893  98.2878 316.5372 0013471 229.1291 130.8745 14.64167260102562
RESURS-DK 1             
1 29228U 06021A   26182.04901117  .00002356  00000+0  13817-3 0  9992
2 29228  69.9341 303.6702 0006702 285.3070  74.7355 15.13273733104672
ARIRANG-2 (KOMPSAT-2)   
1 29268U 06031A   26182.25059640  .00000152  00000+0  37011-4 0  9990
2 29268  97.8302   6.0164 0015360  33.6687 139.4473 14.64667880 63531
LAPAN-TUBSAT            
1 29709U 07001A   26182.19326900 -.00000205  00000+0 -16857-4 0  9993
2 29709  98.1340 181.7332 0012970 135.0076 225.2191 14.85961747 53237
HAIYANG-1B              
1 31113U 07010A   26182.19875392  .00000104  00000+0  55210-4 0  9991
2 31113  98.3502 163.5009 0013942 154.8716 205.3149 14.31030404  2649
COSMO-SKYMED 1          
1 31598U 07023A   26182.17048965  .00002155  00000+0  19165-3 0  9994
2 31598  97.8855  14.1444 0001488  83.8219 276.3172 14.97171680 31882
TERRASAR-X              
1 31698U 07026A   26181.62885468  .00000511  00000+0  27537-4 0  9991
2 31698  97.4453 189.1447 0001922  88.4966 271.6489 15.19151223 55265
WORLDVIEW-1 (WV-1)      
1 32060U 07041A   26182.14302794  .00007736  00000+0  31826-3 0  9997
2 32060  97.3896 301.6878 0001030 315.5916  44.5239 15.24420469 45005
YAOGAN-3                
1 32289U 07055A   26182.22238255  .00001777  00000+0  18617-3 0  9996
2 32289  97.8142 211.9608 0001626  79.3482 280.7919 14.90831336  7968
COSMO-SKYMED 2          
1 32376U 07059A   26182.20323206  .00000407  00000+0  57685-4 0  9994
2 32376  97.8889   5.5979 0001341  89.3739 270.7628 14.82156815  4080
RADARSAT-2              
1 32382U 07061A   26182.17192492 -.00000035  00000+0  34687-5 0  9997
2 32382  98.5772 188.9044 0001310  84.5610 275.5722 14.29980285967955
CARTOSAT-2A             
1 32783U 08021A   26182.18395133  .00000784  00000+0  11213-3 0  9995
2 32783  97.7628 230.4146 0013276  68.4207 291.8418 14.79259991980871
HUANJING 1A (HJ-1A)     
1 33320U 08041A   26182.19111979  .00001790  00000+0  22025-3 0  9991
2 33320  97.6682 167.4884 0020698  91.9767 268.3819 14.84020349960482
HUANJING 1B (HJ-1B)     
1 33321U 08041B   26182.23404889  .00000507  00000+0  67400-4 0  9994
2 33321  97.6518 170.6589 0037278 135.2894 225.1336 14.83339736960492
GEOEYE 1                
1 33331U 08042A   26182.15636020  .00000531  00000+0  10888-3 0  9995
2 33331  98.1334 255.9161 0004982  29.9603 330.1884 14.64639092952191
THEOS                   
1 33396U 08049A   26182.20092468  .00000124  00000+0  77798-4 0  9993
2 33396  98.5568 239.0292 0001120  81.5961 278.5342 14.20135489919959
COSMO-SKYMED 3          
1 33412U 08054A   26182.15334750  .00004573  00000+0  30876-3 0  9992
2 33412  97.8263  40.9555 0014744 215.6053 144.4192 15.07037041959040
YAOGAN-4                
1 33446U 08061A   26182.06433431  .00001126  00000+0  14423-3 0  9994
2 33446  97.9308 115.4723 0015036  30.7690 329.4402 14.83227594947729
GOSAT (IBUKI)           
1 33492U 09002A   26181.77478987 -.00000059  00000+0 -19586-5 0  9996
2 33492  98.0904 292.6868 0001216  80.5142 279.6200 14.67536972933454
DEIMOS-1                
1 35681U 09041A   26182.15867218  .00000547  00000+0  87916-4 0  9994
2 35681  97.7413 338.7811 0002368 111.8983 248.2478 14.75251645908942
DUBAISAT-1              
1 35682U 09041B   26182.13017568  .00001015  00000+0  15785-3 0  9993
2 35682  98.0069 315.2363 0010991  33.0226 327.1667 14.75146989907155
