OBJECT_NAME,OBJECT_ID,EPOCH,MEAN_MOTION,ECCENTRICITY,INCLINATION,RA_OF_ASC_NODE,ARG_OF_PERICENTER,MEAN_ANOMALY,EPHEMERIS_TYPE,CLASSIFICATION_TYPE,NORAD_CAT_ID,ELEMENT_SET_NO,REV_AT_EPOCH,BSTAR,MEAN_MOTION_DOT,MEAN_MOTION_DDOT
SCD 1,1993-009B,2026-07-01T04:20:54.542976,14.46124254,.0041633,24.9687,121.1689,286.1724,173.7380,0,U,22490,999,76314,.69495E-4,.441E-5,0
TECHSAT 1B (GO-32),1998-043D,2026-06-30T23:20:23.293248,14.24431061,.0001716,99.0073,175.0791,137.9285,222.2024,0,U,25397,999,45329,.46975E-4,.62E-6,0
SCD 2,1998-060A,2026-07-01T04:47:57.685344,14.45531076,.0016535,24.9967,345.7440,271.3598,251.4236,0,U,25504,999,46235,.60738E-4,.4E-5,0
DLR-TUBSAT,1999-029B,2026-07-01T05:01:18.712704,14.52430475,.0013282,98.6701,178.1749,310.8616,49.1426,0,U,25757,999,43528,.40824E-4,.118E-5,0
TERRA,1999-068A,2026-07-01T04:31:32.261376,14.61114460,.0002647,97.9449,231.1793,151.6481,244.4540,0,U,25994,999,41165,.10436E-3,.469E-5,0
MAROC-TUBSAT,2001-056D,2026-07-01T02:30:36.480960,13.70263022,.0020603,99.8088,359.2268,106.7634,5.4410,0,U,27004,999,22809,.15537E-4,-.33E-6,0
AQUA,2002-022A,2026-07-01T03:38:00.379392,14.62179055,.0000697,98.4284,151.7138,76.6822,345.6832,0,U,27424,999,28531,.16768E-3,.795E-5,0
SHIYAN-1 (SY-1),2004-012A,2026-07-01T03:26:51.745344,15.34117114,.0004402,97.8690,261.1216,340.2025,19.9045,0,U,28220,999,21323,.54073E-3,.17793E-3,0
AURA,2004-026A,2026-07-01T03:49:47.985888,14.61350235,.0001173,98.3423,138.7291,85.5842,274.5493,0,U,28376,999,16825,.18147E-3,.849E-5,0
IRS-P5 (CARTOSAT-1),2005-017A,2026-07-01T00:52:52.158720,14.91086532,.0002143,97.5305,204.4730,63.8343,296.3096,0,U,28649,999,14588,.15736E-3,.1506E-4,0
SINAH 1,2005-043D,2026-07-01T03:10:05.757312,14.64167260,.0013471,98.2878,316.5372,229.1291,130.8745,0,U,28893,999,10256,.79893E-4,.371E-5,0
RESURS-DK 1,2006-021A,2026-07-01T01:10:34.565088,15.13273733,.0006702,69.9341,303.6702,285.3070,74.7355,0,U,29228,999,10467,.13817E-3,.2356E-4,0
ARIRANG-2 (KOMPSAT-2),2006-031A,2026-07-01T06:00:51.528960,14.64667880,.001536,97.8302,6.0164,33.6687,139.4473,0,U,29268,999,6353,.37011E-4,.152E-5,0
LAPAN-TUBSAT,2007-001A,2026-07-01T04:38:18.441600,14.85961747,.001297,98.1340,181.7332,135.0076,225.2191,0,U,29709,999,5323,-.16857E-4,-.205E-5,0
HAIYANG-1B,2007-010A,2026-07-01T04:46:12.338688,14.31030404,.0013942,98.3502,163.5009,154.8716,205.3149,0,U,31113,999,264,.5521E-4,.104E-5,0
COSMO-SKYMED 1,2007-023A,2026-07-01T04:05:30.305760,14.97171680,.0001488,97.8855,14.1444,83.8219,276.3172,0,U,31598,999,3188,.19165E-3,.2155E-4,0
TERRASAR-X,2007-026A,2026-06-30T15:05:33.044352,15.19151223,.00019221,97.4453,189.1447,88.4966,271.6489,0,U,31698,999,5526,.27537456E-4,.511E-5,0
WORLDVIEW-1 (WV-1),2007-041A,2026-07-01T03:25:57.614016,15.24420469,.000103,97.3896,301.6878,315.5916,44.5239,0,U,32060,999,4500,.31826E-3,.7736E-4,0
YAOGAN-3,2007-055A,2026-07-01T05:20:13.852320,14.90831336,.0001626,97.8142,211.9608,79.3482,280.7919,0,U,32289,999,796,.18617E-3,.1777E-4,0
COSMO-SKYMED 2,2007-059A,2026-07-01T04:52:39.249984,14.82156815,.0001341,97.8889,5.5979,89.3739,270.7628,0,U,32376,999,408,.57685E-4,.407E-5,0
RADARSAT-2,2007-061A,2026-07-01T04:07:34.313088,14.29980285,.000131,98.5772,188.9044,84.5610,275.5722,0,U,32382,999,96795,.34687E-5,-.35E-6,0
CARTOSAT-2A,2008-021A,2026-07-01T04:24:53.394912,14.79259991,.0013276,97.7628,230.4146,68.4207,291.8418,0,U,32783,999,98087,.11213E-3,.784E-5,0
HUANJING 1A (HJ-1A),2008-041A,2026-07-01T04:35:12.749856,14.84020349,.0020698,97.6682,167.4884,91.9767,268.3819,0,U,33320,999,96048,.22025E-3,.179E-4,0
HUANJING 1B (HJ-1B),2008-041B,2026-07-01T05:37:01.824096,14.83339736,.0037278,97.6518,170.6589,135.2894,225.1336,0,U,33321,999,96049,.674E-4,.507E-5,0
GEOEYE 1,2008-042A,2026-07-01T03:45:09.521280,14.64639092,.0004982,98.1334,255.9161,29.9603,330.1884,0,U,33331,999,95219,.10888E-3,.531E-5,0
THEOS,2008-049A,2026-07-01T04:49:19.892352,14.20135489,.000112,98.5568,239.0292,81.5961,278.5342,0,U,33396,999,91995,.77798E-4,.124E-5,0
COSMO-SKYMED 3,2008-054A,2026-07-01T03:40:49.224000,15.07037041,.0014744,97.8263,40.9555,215.6053,144.4192,0,U,33412,999,95904,.30876E-3,.4573E-4,0
YAOGAN-4,2008-061A,2026-07-01T01:32:38.484384,14.83227594,.0015036,97.9308,115.4723,30.7690,329.4402,0,U,33446,999,94772,.14423E-3,.1126E-4,0
GOSAT (IBUKI),2009-002A,2026-06-30T18:35:41.844768,14.67536972,.00012163,98.0904,292.6868,80.5142,279.6200,0,U,33492,999,93345,-.1958554E-5,-.59E-6,0
DEIMOS-1,2009-041A,2026-07-01T03:48:29.276352,14.75251645,.0002368,97.7413,338.7811,111.8983,248.2478,0,U,35681,999,90894,.87916E-4,.547E-5,0
DUBAISAT-1,2009-041B,2026-07-01T03:07:27.178752,14.75146989,.0010991,98.0069,315.2363,33.0226,327.1667,0,U,35682,999,90715,.15785E-3,.1015E-4,0
